NORAD_CAT_ID,OBJECT_NAME,OBJECT_TYPE,EPOCH,MEAN_MOTION,ECCENTRICITY,INCLINATION,RA_OF_ASC_NODE,ARG_OF_PERICENTER,MEAN_ANOMALY,BSTAR,MEAN_MOTION_DOT,MEAN_MOTION_DDOT,TLE_LINE0,TLE_LINE1,TLE_LINE2,SEMIMAJOR_AXIS,PERIOD,APOGEE,PERIGEE,DECAYED
54205.0,STARLINK-5249,PAYLOAD,2023-12-06 11:16:17,15.08853593,0.000164,53.2199,93.8343,110.51,249.6068,5.8825e-05,6.49e-06,0.0,0 STARLINK-5249,1 54205U 22141BA  23340.46965118  .00000649  00000-0  58825-4 0  9999,2 54205  53.2199  93.8343 0001640 110.5100 249.6068 15.08853593 61803,6917.839,95.437,540.838,538.569,0.0
54205.0,STARLINK-5249,PAYLOAD,2023-12-06 12:51:40,15.08851757,0.0001616,53.2164,93.534,124.1887,235.9258,2.1477e-05,5.4e-07,0.0,0 STARLINK-5249,1 54205U 22141BA  23340.53588993  .00000054  00000-0  21477-4 0  9992,2 54205  53.2164  93.5340 0001616 124.1887 235.9258 15.08851757 61589,6917.844,95.437,540.827,538.592,0.0
54205.0,STARLINK-5249,PAYLOAD,2023-12-07 11:07:05,15.08849266,0.0001276,53.2179,89.3736,103.0401,257.0734,-0.00013708,-2.469e-05,0.0,0 STARLINK-5249,1 54205U 22141BA  23341.46325440 -.00002469  00000-0 -13708-3 0  9992,2 54205  53.2179  89.3736 0001276 103.0401 257.0734 15.08849266 61954,6917.852,95.437,540.6,538.834,0.0
54205.0,STARLINK-5249,PAYLOAD,2023-12-07 12:42:28,15.08850029,0.0001326,53.2173,89.0774,98.9911,261.1231,-0.00012359,-2.255e-05,0.0,0 STARLINK-5249,1 54205U 22141BA  23341.52949325 -.00002255  00000-0 -12359-3 0  9997,2 54205  53.2173  89.0774 0001326  98.9911 261.1231 15.08850029 61734,6917.85,95.437,540.632,538.797,0.0
54205.0,STARLINK-5249,PAYLOAD,2023-12-08 10:57:52,15.08836449,0.0001325,53.2176,84.9146,96.33,263.7843,8.2129e-05,1.019e-05,0.0,0 STARLINK-5249,1 54205U 22141BA  23342.45685488  .00001019  00000-0  82129-4 0  9995,2 54205  53.2176  84.9146 0001325  96.3300 263.7843 15.08836449 62106,6917.891,95.438,540.673,538.84,0.0
54205.0,STARLINK-5249,PAYLOAD,2023-12-08 12:33:15,15.08837364,0.0001325,53.2176,84.6173,96.0012,264.1132,8.8011e-05,1.113e-05,0.0,0 STARLINK-5249,1 54205U 22141BA  23342.52309431  .00001113  00000-0  88011-4 0  9995,2 54205  53.2176  84.6173 0001325  96.0012 264.1132 15.08837364 61887,6917.888,95.438,540.67,538.837,0.0
54205.0,STARLINK-5249,PAYLOAD,2023-12-09 12:24:02,15.08835714,0.000134,53.2183,80.1592,93.8646,266.2499,3.0497e-05,1.97e-06,0.0,0 STARLINK-5249,1 54205U 22141BA  23343.51669965  .00000197  00000-0  30497-4 0  9992,2 54205  53.2183  80.1592 0001340  93.8646 266.2499 15.08835714 62030,6917.893,95.438,540.685,538.831,0.0
54205.0,STARLINK-5249,PAYLOAD,2023-12-09 15:34:49,15.08836369,0.0001364,53.2185,79.5645,94.6841,265.4307,3.3694e-05,2.48e-06,0.0,0 STARLINK-5249,1 54205U 22141BA  23343.64917936  .00000248  00000-0  33694-4 0  9999,2 54205  53.2185  79.5645 0001364  94.6841 265.4307 15.08836369 62288,6917.891,95.438,540.7,538.813,0.0
54205.0,STARLINK-5249,PAYLOAD,2023-12-10 13:50:12,15.08839037,0.0001272,53.2185,75.4036,88.0059,272.1079,4.8042e-05,4.77e-06,0.0,0 STARLINK-5249,1 54205U 22141BA  23344.57653912  .00000477  00000-0  48042-4 0  9990,2 54205  53.2185  75.4036 0001272  88.0059 272.1079 15.08839037 62199,6917.883,95.438,540.628,538.868,0.0
54205.0,STARLINK-5249,PAYLOAD,2023-12-11 12:05:36,15.08842307,0.0001547,53.2193,71.2337,67.25,292.8656,7.6927e-05,9.37e-06,0.0,0 STARLINK-5249,1 54205U 22141BA  23345.50389765  .00000937  00000-0  76927-4 0  9990,2 54205  53.2193  71.2337 0001547  67.2500 292.8656 15.08842307 62566,6917.873,95.437,540.809,538.668,0.0
54205.0,STARLINK-5249,PAYLOAD,2023-12-11 13:40:59,15.08843645,0.000159,53.2195,70.9388,65.624,294.4918,8.6167e-05,1.084e-05,0.0,0 STARLINK-5249,1 54205U 22141BA  23345.57013715  .00001084  00000-0  86167-4 0  9997,2 54205  53.2195  70.9388 0001590  65.6240 294.4918 15.08843645 62342,6917.869,95.437,540.834,538.634,0.0
54205.0,STARLINK-5249,PAYLOAD,2023-12-12 11:56:24,15.08842092,0.0001872,53.2197,66.778,59.3445,300.7732,4.973e-05,5.03e-06,0.0,0 STARLINK-5249,1 54205U 22141BA  23346.49750010  .00000503  00000-0  49730-4 0  9995,2 54205  53.2197  66.7780 0001872  59.3445 300.7732 15.08842092 62488,6917.874,95.437,541.034,538.444,0.0
54205.0,STARLINK-5249,PAYLOAD,2023-12-13 11:47:10,15.08846384,0.000145,53.2188,62.3169,77.3999,282.7155,5.6735e-05,6.15e-06,0.0,0 STARLINK-5249,1 54205U 22141BA  23347.49109302  .00000615  00000-0  56735-4 0  9995,2 54205  53.2188  62.3169 0001450  77.3999 282.7155 15.08846384 62865,6917.861,95.437,540.729,538.723,0.0
54205.0,STARLINK-5249,PAYLOAD,2023-12-14 10:02:35,15.08839009,0.0001332,53.2186,58.1527,87.0998,273.0147,-5.0603e-05,-1.093e-05,0.0,0 STARLINK-5249,1 54205U 22141BA  23348.41846078 -.00001093  00000-0 -50603-4 0  9997,2 54205  53.2186  58.1527 0001332  87.0998 273.0147 15.08839009 63007,6917.883,95.438,540.67,538.827,0.0
54205.0,STARLINK-5249,PAYLOAD,2023-12-15 11:28:45,15.08805041,0.0001647,53.2185,53.395,102.2442,257.8734,0.00049258,7.553e-05,0.0,0 STARLINK-5249,1 54205U 22141BA  23349.47830471  .00007553  00000-0  49258-3 0  9992,2 54205  53.2185  53.3950 0001647 102.2442 257.8734 15.08805041 63164,6917.987,95.44,540.992,538.713,0.0
54205.0,STARLINK-5249,PAYLOAD,2023-12-16 11:19:32,15.08835394,0.000144,53.2183,48.9347,100.154,259.9614,5.9215e-05,6.54e-06,0.0,0 STARLINK-5249,1 54205U 22141BA  23350.47190440  .00000654  00000-0  59215-4 0  9999,2 54205  53.2183  48.9347 0001440 100.1540 259.9614 15.08835394 63310,6917.894,95.438,540.756,538.763,0.0
54205.0,STARLINK-5249,PAYLOAD,2023-12-17 11:10:19,15.08839322,0.0001297,53.2177,44.4755,95.2515,264.8625,1.9778e-05,2.7e-07,0.0,0 STARLINK-5249,1 54205U 22141BA  23351.46550718  .00000027  00000-0  19778-4 0  9991,2 54205  53.2177  44.4755 0001297  95.2515 264.8625 15.08839322 63236,6917.882,95.438,540.645,538.85,0.0
54205.0,STARLINK-5249,PAYLOAD,2023-12-18 11:01:05,15.08856957,0.0001355,53.2178,40.0162,87.5944,272.5204,0.00019593,2.833e-05,0.0,0 STARLINK-5249,1 54205U 22141BA  23352.45909082  .00002833  00000-0  19593-3 0  9994,2 54205  53.2178  40.0162 0001355  87.5944 272.5204 15.08856957 63610,6917.829,95.436,540.631,538.756,0.0
54205.0,STARLINK-5249,PAYLOAD,2023-12-19 09:16:30,15.08837349,0.0001548,53.2175,35.8544,81.3835,278.7333,5.7517e-05,6.27e-06,0.0,0 STARLINK-5249,1 54205U 22141BA  23353.38646668  .00000627  00000-0  57517-4 0  9993,2 54205  53.2175  35.8544 0001548  81.3835 278.7333 15.08837349 63758,6917.888,95.438,540.824,538.683,0.0
54205.0,STARLINK-5249,PAYLOAD,2023-12-20 09:07:18,15.08836954,0.0001561,53.2173,31.3922,85.7262,274.3908,-0.00010929,-2.027e-05,0.0,0 STARLINK-5249,1 54205U 22141BA  23354.38007068 -.00002027  00000-0 -10929-3 0  9992,2 54205  53.2173  31.3922 0001561  85.7262 274.3908 15.08836954 63676,6917.89,95.438,540.835,538.675,0.0
54205.0,STARLINK-5249,PAYLOAD,2023-12-21 08:58:04,15.0885371,0.0001651,53.2186,26.9299,82.9319,277.1861,0.00038568,5.858e-05,0.0,0 STARLINK-5249,1 54205U 22141BA  23355.37366509  .00005858  00000-0  38568-3 0  9992,2 54205  53.2186  26.9299 0001651  82.9319 277.1861 15.08853710 64050,6917.838,95.437,540.846,538.561,0.0
54205.0,STARLINK-5249,PAYLOAD,2023-12-21 23:16:33,15.08845957,0.0001255,53.2181,24.2554,88.2941,271.8195,0.00010932,1.453e-05,0.0,0 STARLINK-5249,1 54205U 22141BA  23355.96982803  .00001453  00000-0  10932-3 0  9990,2 54205  53.2181  24.2554 0001255  88.2941 271.8195 15.08845957 64145,6917.862,95.437,540.595,538.859,0.0
54205.0,STARLINK-5249,PAYLOAD,2023-12-22 07:13:29,15.0883745,0.0001166,53.2165,22.765,85.1783,274.9342,-4.6148e-05,-1.022e-05,0.0,0 STARLINK-5249,1 54205U 22141BA  23356.30103027 -.00001022  00000-0 -46148-4 0  9995,2 54205  53.2165  22.7650 0001166  85.1783 274.9342 15.08837450 64190,6917.888,95.438,540.56,538.947,0.0
54205.0,STARLINK-5249,PAYLOAD,2023-12-23 11:50:24,15.0885256,0.0001481,53.2166,17.4129,114.6337,245.4809,-0.00017503,-3.073e-05,0.0,0 STARLINK-5249,1 54205U 22141BA  23357.49334279 -.00003073  00000-0 -17503-3 0  9991,2 54205  53.2166  17.4129 0001481 114.6337 245.4809 15.08852560 64376,6917.842,95.437,540.732,538.682,0.0
54205.0,STARLINK-5249,PAYLOAD,2023-12-23 22:58:07,15.08835741,0.0001316,53.2162,15.329,104.0957,256.0182,0.00012835,1.755e-05,0.0,0 STARLINK-5249,1 54205U 22141BA  23357.95703329  .00001755  00000-0  12835-3 0  9994,2 54205  53.2162  15.3290 0001316 104.0957 256.0182 15.08835741 64448,6917.893,95.438,540.669,538.848,0.0
54205.0,STARLINK-5249,PAYLOAD,2023-12-24 11:41:12,15.08836165,0.0001412,53.2166,12.9503,109.3725,250.742,9.1225e-05,1.164e-05,0.0,0 STARLINK-5249,1 54205U 22141BA  23358.48695447  .00001164  00000-0  91225-4 0  9999,2 54205  53.2166  12.9503 0001412 109.3725 250.7420 15.08836165 64290,6917.892,95.438,540.734,538.78,0.0
54205.0,STARLINK-5249,PAYLOAD,2023-12-25 09:56:36,15.08840143,0.0001566,53.2168,8.7868,115.7996,244.3158,0.00036782,5.571e-05,0.0,0 STARLINK-5249,1 54205U 22141BA  23359.41431541  .00005571  00000-0  36782-3 0  9998,2 54205  53.2168   8.7868 0001566 115.7996 244.3158 15.08840143 64669,6917.88,95.438,540.828,538.662,0.0
54205.0,STARLINK-5249,PAYLOAD,2023-12-26 08:12:01,15.0884045,0.0001824,53.2179,4.6305,64.6799,295.4382,9.7746e-05,1.268e-05,0.0,0 STARLINK-5249,1 54205U 22141BA  23360.34167900  .00001268  00000-0  97746-4 0  9994,2 54205  53.2179   4.6305 0001824  64.6799 295.4382 15.08840450 64805,6917.879,95.438,541.006,538.482,0.0
54205.0,STARLINK-5249,PAYLOAD,2023-12-27 06:27:24,15.08850513,0.000157,53.2176,0.4667,88.912,271.2052,7.7764e-05,9.5e-06,0.0,0 STARLINK-5249,1 54205U 22141BA  23361.26903296  .00000950  00000-0  77764-4 0  9997,2 54205  53.2176   0.4667 0001570  88.9120 271.2052 15.08850513 64944,6917.848,95.437,540.799,538.627,0.0
54205.0,STARLINK-5249,PAYLOAD,2023-12-28 06:18:12,15.08837796,0.0001576,53.2177,356.0066,92.4949,267.6223,-2.1452e-06,-3.22e-06,0.0,0 STARLINK-5249,1 54205U 22141BA  23362.26264291 -.00000322  00000-0 -21452-5 0  9992,2 54205  53.2177 356.0066 0001576  92.4949 267.6223 15.08837796 65097,6917.887,95.438,540.842,538.662,0.0
